[{"OBJECT_NAME":"STARLINK-1816","OBJECT_ID":"2020-073AW","EPOCH":"2026-03-10T00:00:02.999808","MEAN_MOTION":15.7373021,"ECCENTRICITY":0.00013796,"INCLINATION":53.0412,"RA_OF_ASC_NODE":197.1696,"ARG_OF_PERICENTER":136.5835,"MEAN_ANOMALY":114.6456,"EPHEMERIS_TYPE":0,"CLASSIFICATION_TYPE":"U","NORAD_CAT_ID":46714,"ELEMENT_SET_NO":999,"REV_AT_EPOCH":597,"BSTAR":0.00068317035,"MEAN_MOTION_DOT":0.00098636,"MEAN_MOTION_DDOT":0},{"OBJECT_NAME":"STARLINK-11510 [DTC]","OBJECT_ID":"2025-004F","EPOCH":"2026-03-09T10:10:00.894144","MEAN_MOTION":15.709106,"ECCENTRICITY":0.00019141,"INCLINATION":43.0013,"RA_OF_ASC_NODE":72.6095,"ARG_OF_PERICENTER":291.9597,"MEAN_ANOMALY":68.1067,"EPHEMERIS_TYPE":0,"CLASSIFICATION_TYPE":"U","NORAD_CAT_ID":62516,"ELEMENT_SET_NO":999,"REV_AT_EPOCH":6716,"BSTAR":0.0016734611,"MEAN_MOTION_DOT":0.00220734,"MEAN_MOTION_DDOT":0}]
